IDEFIX & ARIANE 42P R/B 
1 27422U 02021B   26008.08405710  .00000333  00000+0  14327-3 0  9991
2 27422  98.5815 307.4373 0012134  11.4443 348.7014 14.30974293235357
AQUA                    
1 27424U 02022A   26004.96787593  .00001598  00000+0  32997-3 0  9996
2 27424  98.4069 331.2279 0002002  90.2377   0.6092 14.61798176259425
CZ-4B R/B               
1 27432U 02024C   26008.17258091  .00000047  00000+0  47063-4 0  9999
2 27432  98.8957  61.8469 0049982 193.8636 235.7357 14.14534595220689
MIDORI II (ADEOS-II)    
1 27597U 02056A   26007.89845379  .00000367  00000+0  16216-3 0  9995
2 27597  98.7670 325.9970 0001425 128.4706 231.6603 14.29230027201615
H-2A R/B                
1 27601U 02056E   26008.12138836  .00000416  00000+0  16070-3 0  9994
2 27601  98.3101 330.8333 0070009 343.1060  27.2854 14.33705749205431
CZ-4B R/B               
1 28059U 03049C   26008.21047491  .00000441  00000+0  11255-3 0  9999
2 28059  98.6808   0.7774 0049206  56.9993 303.5918 14.54941252177801
CZ-2C R/B               
1 28222U 04012C   26008.16044482  .00039468  00000+0  52550-3 0  9997
2 28222  97.7367  68.0019 0016851 170.0088 190.1505 15.57886822194834
SL-16 R/B               
1 28353U 04021B   26008.20974310  .00000231  00000+0  14492-3 0  9998
2 28353  71.0020 359.4141 0003624 156.3051 203.8239 14.14590527114287
CZ-4B R/B               
1 28415U 04035C   26008.09057045  .00007584  00000+0  27691-3 0  9999
2 28415  97.3576  43.0869 0032802 180.7245 179.3952 15.27890568170657
CZ-2C R/B               
1 28480U 04046B   26008.18342075  .00000292  00000+0  12427-3 0  9993
2 28480  98.2000 286.9202 0139027 334.2961  25.1355 14.26962006 99872
ARIANE 5 R/B            
1 28499U 04049H   26008.06511278  .00001433  00000+0  16445-3 0  9998
2 28499  98.2539 174.2944 0084233 186.7790 173.2292 14.85101738136799
CZ-2D R/B               
1 28738U 05024B   26007.99353955  .00030450  00000+0  45398-3 0  9995
2 28738  97.3626  21.1595 0003367 224.1028 135.9958 15.55035764130335
